{
  "type": "FeatureCollection",
  "features": [
    {
      "type": "Feature",
      "properties": {
        "zone": "AE",
        "bfe_ft": 2081.4
      },
      "geometry": {
        "type": "Polygon",
        "coordinates": [
          [
            [
              -82.67989338111222,
              35.54866239805866
            ],
            [
              -82.67993075964633,
              35.54948607749799
            ],
            [
              -82.68093863438202,
              35.54945552564384
            ],
            [
              -82.6809012456293,
              35.54863184650823
            ],
            [
              -82.67989338111222,
              35.54866239805866
            ]
          ]
        ]
      }
    },
    {
      "type": "Feature",
      "properties": {
        "zone": "X",
        "bfe_ft": null
      },
      "geometry": {
        "type": "Polygon",
        "coordinates": [
          [
            [
              -82.67408879491687,
              35.55048781099285
            ],
            [
              -82.67413855567283,
              35.55158605206892
            ],
            [
              -82.67548242617752,
              35.55154537850669
            ],
            [
              -82.67543264725411,
              35.55044713796974
            ],
            [
              -82.67408879491687,
              35.55048781099285
            ]
          ]
        ]
      }
    }
  ]
}
